[
    {
        "Altitude(m)": 617719.7352080795,
        "Argument of Periapsis(deg)": 0.0,
        "Eccentricity": 0.0,
        "Inclination(deg)": 60.0,
        "Latitude(deg)": -41.10254336385622,
        "Longitude(deg)": 40.09470841631611,
        "Mean Anomaly(deg)": -130.9091,
        "RAAN(deg)": 290.0,
        "Satellite Name": "Test1 1290",
        "Satellite Number": 1290,
        "Semi-Major Axis(m)": 6980739.136638005,
        "Time(s)": 0
    },
    {
        "Altitude(m)": 617911.2708082219,
        "Argument of Periapsis(deg)": 0.00010418945913296404,
        "Eccentricity": 0.0,
        "Inclination(deg)": 60.0,
        "Latitude(deg)": -41.565734729051805,
        "Longitude(deg)": 40.59911522138711,
        "Mean Anomaly(deg)": -130.28899385453815,
        "RAAN(deg)": 289.99957995086027,
        "Satellite Name": "Test1 1290",
        "Satellite Number": 1290,
        "Semi-Major Axis(m)": 6980739.136638005,
        "Time(s)": 10
    }
]